{
  "type": "FeatureCollection",
  "features": [
    {
      "type": "Feature",
      "properties": {
        "norad_id": 31026,
        "name": "FENGYUN 1C DEB",
        "group": "fengyun-1c-debris",
        "lat": -48.432375236174344,
        "lon": 96.00385503448717,
        "alt_km": 904.6750061049779,
        "timestamp": "2025-12-16T17:51:11.211785+00:00",
        "meta_object_name": "FENGYUN 1C DEB",
        "meta_object_id": "1999-025BDU",
        "meta_epoch": "2025-12-14T02:19:39.143712",
        "meta_mean_motion": 13.83399473,
        "meta_eccentricity": 0.01343808,
        "meta_inclination": 98.7796,
        "meta_ra_of_asc_node": 283.5682,
        "meta_arg_of_pericenter": 178.8427,
        "meta_mean_anomaly": 193.9583,
        "meta_ephemeris_type": 0,
        "meta_classification_type": "U",
        "meta_norad_cat_id": 31026,
        "meta_element_set_no": 999,
        "meta_rev_at_epoch": 68045,
        "meta_bstar": 0.00020832893,
        "meta_mean_motion_dot": 2.06e-06,
        "meta_mean_motion_ddot": 0,
        "tle_line1": "1 31026U 99025BDU 25348.09698083  .00000206  00000+0  20833-3 0  9998",
        "tle_line2": "2 31026  98.7796 283.5682 0134380 178.8427 193.9583 13.83399473680451"
      },
      "geometry": {
        "type": "Point",
        "coordinates": [
          96.00385503448717,
          -48.432375236174344
        ]
      }
    },
    {
      "type": "Feature",
      "properties": {
        "norad_id": 31028,
        "name": "FENGYUN 1C DEB",
        "group": "fengyun-1c-debris",
        "lat": -40.487487629054996,
        "lon": -70.14851449595965,
        "alt_km": 839.9914652382222,
        "timestamp": "2025-12-16T17:51:11.211795+00:00",
        "meta_object_name": "FENGYUN 1C DEB",
        "meta_object_id": "1999-025BDW",
        "meta_epoch": "2025-12-15T12:39:31.762080",
        "meta_mean_motion": 13.89074489,
        "meta_eccentricity": 0.01645061,
        "meta_inclination": 98.7055,
        "meta_ra_of_asc_node": 281.1985,
        "meta_arg_of_pericenter": 286.6676,
        "meta_mean_anomaly": 71.6481,
        "meta_ephemeris_type": 0,
        "meta_classification_type": "U",
        "meta_norad_cat_id": 31028,
        "meta_element_set_no": 999,
        "meta_rev_at_epoch": 62042,
        "meta_bstar": 0.00031224634,
        "meta_mean_motion_dot": 3.8e-06,
        "meta_mean_motion_ddot": 0,
        "tle_line1": "1 31028U 99025BDW 25349.52745095  .00000380  00000+0  31225-3 0  9995",
        "tle_line2": "2 31028  98.7055 281.1985 0164506 286.6676  71.6481 13.89074489620421"
      },
      "geometry": {
        "type": "Point",
        "coordinates": [
          -70.14851449595965,
          -40.487487629054996
        ]
      }
    },
    {
      "type": "Feature",
      "properties": {
        "norad_id": 31029,
        "name": "FENGYUN 1C DEB",
        "group": "fengyun-1c-debris",
        "lat": 8.620878139514076,
        "lon": 69.09773879033925,
        "alt_km": 799.5033444620585,
        "timestamp": "2025-12-16T17:51:11.211806+00:00",
        "meta_object_name": "FENGYUN 1C DEB",
        "meta_object_id": "1999-025BDX",
        "meta_epoch": "2025-12-15T04:56:16.350720",
        "meta_mean_motion": 14.34326953,
        "meta_eccentricity": 0.00901201,
        "meta_inclination": 98.8584,
        "meta_ra_of_asc_node": 246.167,
        "meta_arg_of_pericenter": 66.6791,
        "meta_mean_anomaly": 85.731,
        "meta_ephemeris_type": 0,
        "meta_classification_type": "U",
        "meta_norad_cat_id": 31029,
        "meta_element_set_no": 999,
        "meta_rev_at_epoch": 97831,
        "meta_bstar": 0.00033049729,
        "meta_mean_motion_dot": 9.26e-06,
        "meta_mean_motion_ddot": 0,
        "tle_line1": "1 31029U 99025BDX 25349.20574480  .00000926  00000+0  33050-3 0  9993",
        "tle_line2": "2 31029  98.8584 246.1670 0090120  66.6791  85.7310 14.34326953978314"
      },
      "geometry": {
        "type": "Point",
        "coordinates": [
          69.09773879033925,
          8.620878139514076
        ]
      }
    },
    {
      "type": "Feature",
      "properties": {
        "norad_id": 31030,
        "name": "FENGYUN 1C DEB",
        "group": "fengyun-1c-debris",
        "lat": -18.427602460136036,
        "lon": -130.29488205158535,
        "alt_km": 829.4667592950609,
        "timestamp": "2025-12-16T17:51:11.211816+00:00",
        "meta_object_name": "FENGYUN 1C DEB",
        "meta_object_id": "1999-025BDY",
        "meta_epoch": "2025-12-15T10:39:01.467936",
        "meta_mean_motion": 14.2368483,
        "meta_eccentricity": 0.00277251,
        "meta_inclination": 98.7672,
        "meta_ra_of_asc_node": 51.3569,
        "meta_arg_of_pericenter": 76.6431,
        "meta_mean_anomaly": 301.9645,
        "meta_ephemeris_type": 0,
        "meta_classification_type": "U",
        "meta_norad_cat_id": 31030,
        "meta_element_set_no": 999,
        "meta_rev_at_epoch": 96743,
        "meta_bstar": 0.00077237476,
        "meta_mean_motion_dot": 1.725e-05,
        "meta_mean_motion_ddot": 0,
        "tle_line1": "1 31030U 99025BDY 25349.44376699  .00001725  00000+0  77237-3 0  9996",
        "tle_line2": "2 31030  98.7672  51.3569 0027725  76.6431 301.9645 14.23684830967433"
      },
      "geometry": {
        "type": "Point",
        "coordinates": [
          -130.29488205158535,
          -18.427602460136036
        ]
      }
    },
    {
      "type": "Feature",
      "properties": {
        "norad_id": 31031,
        "name": "FENGYUN 1C DEB",
        "group": "fengyun-1c-debris",
        "lat": 17.433759261358443,
        "lon": 90.82921345037018,
        "alt_km": 802.8195828146472,
        "timestamp": "2025-12-16T17:51:11.211826+00:00",
        "meta_object_name": "FENGYUN 1C DEB",
        "meta_object_id": "1999-025BDZ",
        "meta_epoch": "2025-12-15T06:19:29.672832",
        "meta_mean_motion": 14.20989204,
        "meta_eccentricity": 0.00278558,
        "meta_inclination": 99.0717,
        "meta_ra_of_asc_node": 266.4341,
        "meta_arg_of_pericenter": 179.1838,
        "meta_mean_anomaly": 334.5534,
        "meta_ephemeris_type": 0,
        "meta_classification_type": "U",
        "meta_norad_cat_id": 31031,
        "meta_element_set_no": 999,
        "meta_rev_at_epoch": 96890,
        "meta_bstar": 0.00042975182,
        "meta_mean_motion_dot": 8.88e-06,
        "meta_mean_motion_ddot": 0,
        "tle_line1": "1 31031U 99025BDZ 25349.26353788  .00000888  00000+0  42975-3 0  9991",
        "tle_line2": "2 31031  99.0717 266.4341 0027855 179.1838 334.5534 14.20989204968901"
      },
      "geometry": {
        "type": "Point",
        "coordinates": [
          90.82921345037018,
          17.433759261358443
        ]
      }
    },
    {
      "type": "Feature",
      "properties": {
        "norad_id": 31032,
        "name": "FENGYUN 1C DEB",
        "group": "fengyun-1c-debris",
        "lat": -80.09632626729633,
        "lon": 71.26579114206291,
        "alt_km": 888.5481066109869,
        "timestamp": "2025-12-16T17:51:11.211836+00:00",
        "meta_object_name": "FENGYUN 1C DEB",
        "meta_object_id": "1999-025BEA",
        "meta_epoch": "2025-12-15T19:09:17.600832",
        "meta_mean_motion": 14.02211133,
        "meta_eccentricity": 0.01391796,
        "meta_inclination": 99.3993,
        "meta_ra_of_asc_node": 358.7198,
        "meta_arg_of_pericenter": 187.6892,
        "meta_mean_anomaly": 352.2704,
        "meta_ephemeris_type": 0,
        "meta_classification_type": "U",
        "meta_norad_cat_id": 31032,
        "meta_element_set_no": 999,
        "meta_rev_at_epoch": 95024,
        "meta_bstar": 0.0010599997,
        "meta_mean_motion_dot": 1.72e-05,
        "meta_mean_motion_ddot": 0,
        "tle_line1": "1 31032U 99025BEA 25349.79812038  .00001720  00000+0  10600-2 0  9993",
        "tle_line2": "2 31032  99.3993 358.7198 0139179 187.6892 352.2704 14.02211133950246"
      },
      "geometry": {
        "type": "Point",
        "coordinates": [
          71.26579114206291,
          -80.09632626729633
        ]
      }
    },
    {
      "type": "Feature",
      "properties": {
        "norad_id": 31033,
        "name": "FENGYUN 1C DEB",
        "group": "fengyun-1c-debris",
        "lat": -32.84610287345959,
        "lon": -25.567403473240454,
        "alt_km": 879.2802941604205,
        "timestamp": "2025-12-16T17:51:11.211852+00:00",
        "meta_object_name": "FENGYUN 1C DEB",
        "meta_object_id": "1999-025BEB",
        "meta_epoch": "2025-12-15T05:04:59.252160",
        "meta_mean_motion": 14.27454393,
        "meta_eccentricity": 0.01541498,
        "meta_inclination": 98.4386,
        "meta_ra_of_asc_node": 327.4533,
        "meta_arg_of_pericenter": 103.2418,
        "meta_mean_anomaly": 276.3126,
        "meta_ephemeris_type": 0,
        "meta_classification_type": "U",
        "meta_norad_cat_id": 31033,
        "meta_element_set_no": 999,
        "meta_rev_at_epoch": 97381,
        "meta_bstar": 0.0001899971,
        "meta_mean_motion_dot": 4.87e-06,
        "meta_mean_motion_ddot": 0,
        "tle_line1": "1 31033U 99025BEB 25349.21179690  .00000487  00000+0  19000-3 0  9994",
        "tle_line2": "2 31033  98.4386 327.4533 0154149 103.2418 276.3126 14.27454393973817"
      },
      "geometry": {
        "type": "Point",
        "coordinates": [
          -25.567403473240454,
          -32.84610287345959
        ]
      }
    }
  ]
}